[{"OBJECT_NAME":"STARLINK-32349","OBJECT_ID":"2024-195P","EPOCH":"2026-03-09T17:03:09.544032","MEAN_MOTION":15.30193192,"ECCENTRICITY":0.00014177,"INCLINATION":53.1581,"RA_OF_ASC_NODE":155.333,"ARG_OF_PERICENTER":83.2634,"MEAN_ANOMALY":276.8528,"EPHEMERIS_TYPE":0,"CLASSIFICATION_TYPE":"U","NORAD_CAT_ID":61700,"ELEMENT_SET_NO":999,"REV_AT_EPOCH":7718,"BSTAR":0.00021108559,"MEAN_MOTION_DOT":5.896e-5,"MEAN_MOTION_DDOT":0},{"OBJECT_NAME":"SCS-01 H","OBJECT_ID":"2025-100H","EPOCH":"2026-03-09T23:19:05.376864","MEAN_MOTION":15.31767757,"ECCENTRICITY":0.00071581,"INCLINATION":97.3749,"RA_OF_ASC_NODE":145.8085,"ARG_OF_PERICENTER":277.8492,"MEAN_ANOMALY":82.1937,"EPHEMERIS_TYPE":0,"CLASSIFICATION_TYPE":"U","NORAD_CAT_ID":63989,"ELEMENT_SET_NO":999,"REV_AT_EPOCH":4566,"BSTAR":0.0011436254,"MEAN_MOTION_DOT":0.00035149,"MEAN_MOTION_DDOT":0}]
